[{"OBJECT_NAME":"YUNHAI-2 02B","OBJECT_ID":"2024-052B","EPOCH":"2026-03-09T23:36:35.688096","MEAN_MOTION":14.27934606,"ECCENTRICITY":0.00049008,"INCLINATION":50.0096,"RA_OF_ASC_NODE":82.8635,"ARG_OF_PERICENTER":204.1561,"MEAN_ANOMALY":155.9125,"EPHEMERIS_TYPE":0,"CLASSIFICATION_TYPE":"U","NORAD_CAT_ID":59281,"ELEMENT_SET_NO":999,"REV_AT_EPOCH":10243,"BSTAR":0.00011696599,"MEAN_MOTION_DOT":1.31e-6,"MEAN_MOTION_DDOT":0},{"OBJECT_NAME":"FENGYUN 1C DEB","OBJECT_ID":"1999-025ES","EPOCH":"2026-03-09T14:22:40.600128","MEAN_MOTION":14.21082797,"ECCENTRICITY":0.0117205,"INCLINATION":98.2452,"RA_OF_ASC_NODE":294.4675,"ARG_OF_PERICENTER":40.838,"MEAN_ANOMALY":13.8052,"EPHEMERIS_TYPE":0,"CLASSIFICATION_TYPE":"U","NORAD_CAT_ID":29848,"ELEMENT_SET_NO":999,"REV_AT_EPOCH":98351,"BSTAR":0.0012173,"MEAN_MOTION_DOT":2.794e-5,"MEAN_MOTION_DDOT":0}]
